[{"OBJECT_NAME":"SDS-4","OBJECT_ID":"2012-025C","EPOCH":"2026-03-09T22:00:42.096096","MEAN_MOTION":14.75631591,"ECCENTRICITY":0.00056029,"INCLINATION":98.1333,"RA_OF_ASC_NODE":164.2362,"ARG_OF_PERICENTER":252.4969,"MEAN_ANOMALY":107.5627,"EPHEMERIS_TYPE":0,"CLASSIFICATION_TYPE":"U","NORAD_CAT_ID":38339,"ELEMENT_SET_NO":999,"REV_AT_EPOCH":74134,"BSTAR":0.00023374761,"MEAN_MOTION_DOT":1.543e-5,"MEAN_MOTION_DDOT":0},{"OBJECT_NAME":"CZ-6A DEB","OBJECT_ID":"2024-140JV","EPOCH":"2026-03-09T12:42:13.616064","MEAN_MOTION":14.57005514,"ECCENTRICITY":0.01088917,"INCLINATION":88.9372,"RA_OF_ASC_NODE":277.8319,"ARG_OF_PERICENTER":255.3693,"MEAN_ANOMALY":103.5425,"EPHEMERIS_TYPE":0,"CLASSIFICATION_TYPE":"U","NORAD_CAT_ID":60866,"ELEMENT_SET_NO":999,"REV_AT_EPOCH":8303,"BSTAR":0.00063879028,"MEAN_MOTION_DOT":3.13e-5,"MEAN_MOTION_DDOT":0}]
